*******************************************************************************
Ephemeris / WWW_USER Mon Mar 24 08:13:49 2025 Pasadena, USA      / Horizons    
*******************************************************************************
Target body name: (2018 VN1)                      {source: JPL#9}
Center body name: Earth (399)                     {source: DE441}
Center-site name: Mauna Kea
*******************************************************************************
Start time      : A.D. 2018-Dec-20 03:57:00.0000 UT      
Stop  time      : A.D. 2018-Dec-20 16:41:00.0000 UT      
Step-size       : 1 minutes
*******************************************************************************
Target pole/equ : undefined
Target radii    : undefined                                                    
Center geodetic : 204.5278, 19.8260847, 4.21024   {E-lon(deg),Lat(deg),Alt(km)}
Center cylindric: 204.5278, 6006.35451, 2151.0229 {E-lon(deg),Dxy(km),Dz(km)}
Center pole/equ : ITRF93                          {East-longitude positive}
Center radii    : 6378.137, 6378.137, 6356.752 km {Equator_a, b, pole_c}       
Target primary  : Sun
Vis. interferer : MOON (R_eq= 1737.400) km        {source: DE441}
Rel. light bend : Sun                             {source: DE441}
Rel. lght bnd GM: 1.3271E+11 km^3/s^2                                          
Small-body perts: Yes                             {source: SB441-N16}
Atmos refraction: NO (AIRLESS)
RA format       : HMS
Time format     : CAL 
Calendar mode   : Mixed Julian/Gregorian
RTS-only print  : NO       
EOP file        : eop.250321.p250617                                           
EOP coverage    : DATA-BASED 1962-JAN-20 TO 2025-MAR-21. PREDICTS-> 2025-JUN-16
Units conversion: 1 au= 149597870.700 km, c= 299792.458 km/s, 1 day= 86400.0 s 
Table cut-offs 1: Elevation (-90.0deg=NO ),Airmass (>38.000=NO), Daylight (YES)
Table cut-offs 2: Solar elongation (  0.0,180.0=NO ),Local Hour Angle( 0.0=NO )
Table cut-offs 3: RA/DEC angular rate (     0.0=NO )                           
*******************************************************************************
Initial IAU76/J2000 heliocentric ecliptic osculating elements (au, days, deg.):
  EPOCH=  2458428.5 ! 2018-Nov-06.00 (TDB)         Residual RMS= .27219        
   EC= .3884608603153671   QR= 1.011903292497374   TP= 2458433.1511739166      
   OM= 228.4137592171332   W=  180.2469578564258   IN= 3.355185598403424       
  Equivalent ICRF heliocentric cartesian coordinates (au, au/d):
   X= 7.364971791856070E-01  Y= 6.361813492829538E-01  Z= 2.815132693616627E-01
  VX=-1.417073247356795E-02 VY= 1.354428742085641E-02 VZ= 4.590405825264917E-03
Asteroid physical parameters (km, seconds, rotational period in hours):        
   GM= n.a.                RAD= n.a.               ROTPER= n.a.                
   H= 26.2                 G= .150                 B-V= n.a.                   
                           ALBEDO= n.a.            STYP= n.a.                  
*******************************************************************************
 Date__(UT)__HR:MN     R.A._________(ICRF)_________DEC
******************************************************
$$SOE
 2018-Dec-20 08:03  m  07 51 28.575283 +01 19 26.87621
 2018-Dec-20 08:04  m  07 51 28.548321 +01 19 27.05854
 2018-Dec-20 08:05  m  07 51 28.521286 +01 19 27.24087
 2018-Dec-20 08:06  m  07 51 28.494180 +01 19 27.42320
 2018-Dec-20 08:07  m  07 51 28.467001 +01 19 27.60554
 2018-Dec-20 08:08  m  07 51 28.439749 +01 19 27.78788
 2018-Dec-20 08:09  m  07 51 28.412426 +01 19 27.97023
 2018-Dec-20 08:10  m  07 51 28.385031 +01 19 28.15257
 2018-Dec-20 08:11  m  07 51 28.357565 +01 19 28.33493
 2018-Dec-20 08:12  m  07 51 28.330027 +01 19 28.51728
 2018-Dec-20 08:13  m  07 51 28.302418 +01 19 28.69964
 2018-Dec-20 08:14  m  07 51 28.274737 +01 19 28.88200
 2018-Dec-20 08:15  m  07 51 28.246986 +01 19 29.06437
 2018-Dec-20 08:16  m  07 51 28.219164 +01 19 29.24674
 2018-Dec-20 08:17  m  07 51 28.191271 +01 19 29.42911
 2018-Dec-20 08:18  m  07 51 28.163308 +01 19 29.61148
 2018-Dec-20 08:19  m  07 51 28.135275 +01 19 29.79386
 2018-Dec-20 08:20  m  07 51 28.107172 +01 19 29.97624
 2018-Dec-20 08:21  m  07 51 28.078999 +01 19 30.15862
 2018-Dec-20 08:22  m  07 51 28.050756 +01 19 30.34100
 2018-Dec-20 08:23  m  07 51 28.022443 +01 19 30.52339
 2018-Dec-20 08:24  m  07 51 27.994061 +01 19 30.70578
 2018-Dec-20 08:25  m  07 51 27.965610 +01 19 30.88817
 2018-Dec-20 08:26  m  07 51 27.937091 +01 19 31.07056
 2018-Dec-20 08:27  m  07 51 27.908502 +01 19 31.25296
 2018-Dec-20 08:28  m  07 51 27.879845 +01 19 31.43536
 2018-Dec-20 08:29  m  07 51 27.851119 +01 19 31.61775
 2018-Dec-20 08:30  m  07 51 27.822325 +01 19 31.80015
 2018-Dec-20 08:31  m  07 51 27.793463 +01 19 31.98256
 2018-Dec-20 08:32  m  07 51 27.764533 +01 19 32.16496
 2018-Dec-20 08:33  m  07 51 27.735536 +01 19 32.34736
 2018-Dec-20 08:34  m  07 51 27.706471 +01 19 32.52977
 2018-Dec-20 08:35  m  07 51 27.677339 +01 19 32.71218
 2018-Dec-20 08:36  m  07 51 27.648140 +01 19 32.89459
 2018-Dec-20 08:37  m  07 51 27.618874 +01 19 33.07699
 2018-Dec-20 08:38  m  07 51 27.589542 +01 19 33.25940
 2018-Dec-20 08:39  m  07 51 27.560143 +01 19 33.44182
 2018-Dec-20 08:40  m  07 51 27.530677 +01 19 33.62423
 2018-Dec-20 08:41  m  07 51 27.501146 +01 19 33.80664
 2018-Dec-20 08:42  m  07 51 27.471549 +01 19 33.98905
 2018-Dec-20 08:43  m  07 51 27.441886 +01 19 34.17146
 2018-Dec-20 08:44  m  07 51 27.412158 +01 19 34.35388
 2018-Dec-20 08:45  m  07 51 27.382365 +01 19 34.53629
 2018-Dec-20 08:46  m  07 51 27.352507 +01 19 34.71871
 2018-Dec-20 08:47  m  07 51 27.322583 +01 19 34.90112
 2018-Dec-20 08:48  m  07 51 27.292596 +01 19 35.08353
 2018-Dec-20 08:49  m  07 51 27.262544 +01 19 35.26595
 2018-Dec-20 08:50  m  07 51 27.232428 +01 19 35.44836
 2018-Dec-20 08:51  m  07 51 27.202248 +01 19 35.63077
 2018-Dec-20 08:52  m  07 51 27.172004 +01 19 35.81319
 2018-Dec-20 08:53  m  07 51 27.141697 +01 19 35.99560
 2018-Dec-20 08:54  m  07 51 27.111326 +01 19 36.17801
 2018-Dec-20 08:55  m  07 51 27.080893 +01 19 36.36042
 2018-Dec-20 08:56  m  07 51 27.050396 +01 19 36.54283
 2018-Dec-20 08:57  m  07 51 27.019837 +01 19 36.72524
 2018-Dec-20 08:58  m  07 51 26.989216 +01 19 36.90765
 2018-Dec-20 08:59  m  07 51 26.958532 +01 19 37.09006
 2018-Dec-20 09:00  m  07 51 26.927787 +01 19 37.27247
 2018-Dec-20 09:01  m  07 51 26.896980 +01 19 37.45487
 2018-Dec-20 09:02  m  07 51 26.866112 +01 19 37.63728
 2018-Dec-20 09:03  m  07 51 26.835182 +01 19 37.81968
 2018-Dec-20 09:04  m  07 51 26.804191 +01 19 38.00208
 2018-Dec-20 09:05  m  07 51 26.773140 +01 19 38.18448
 2018-Dec-20 09:06  m  07 51 26.742028 +01 19 38.36688
 2018-Dec-20 09:07  m  07 51 26.710855 +01 19 38.54928
 2018-Dec-20 09:08  m  07 51 26.679623 +01 19 38.73167
 2018-Dec-20 09:09  m  07 51 26.648331 +01 19 38.91407
 2018-Dec-20 09:10  m  07 51 26.616979 +01 19 39.09646
 2018-Dec-20 09:11  m  07 51 26.585568 +01 19 39.27885
 2018-Dec-20 09:12  m  07 51 26.554098 +01 19 39.46123
 2018-Dec-20 09:13  m  07 51 26.522569 +01 19 39.64362
 2018-Dec-20 09:14  m  07 51 26.490981 +01 19 39.82600
 2018-Dec-20 09:15  m  07 51 26.459335 +01 19 40.00838
 2018-Dec-20 09:16  m  07 51 26.427631 +01 19 40.19076
 2018-Dec-20 09:17  m  07 51 26.395869 +01 19 40.37314
 2018-Dec-20 09:18  m  07 51 26.364049 +01 19 40.55551
 2018-Dec-20 09:19  m  07 51 26.332172 +01 19 40.73788
 2018-Dec-20 09:20  m  07 51 26.300238 +01 19 40.92025
 2018-Dec-20 09:21  m  07 51 26.268247 +01 19 41.10261
 2018-Dec-20 09:22  m  07 51 26.236199 +01 19 41.28498
 2018-Dec-20 09:23  m  07 51 26.204095 +01 19 41.46733
 2018-Dec-20 09:24  m  07 51 26.171935 +01 19 41.64969
 2018-Dec-20 09:25  m  07 51 26.139719 +01 19 41.83204
 2018-Dec-20 09:26  m  07 51 26.107447 +01 19 42.01439
 2018-Dec-20 09:27  m  07 51 26.075120 +01 19 42.19674
 2018-Dec-20 09:28  m  07 51 26.042738 +01 19 42.37908
 2018-Dec-20 09:29  m  07 51 26.010301 +01 19 42.56142
 2018-Dec-20 09:30  m  07 51 25.977810 +01 19 42.74376
 2018-Dec-20 09:31  m  07 51 25.945264 +01 19 42.92609
 2018-Dec-20 09:32  m  07 51 25.912664 +01 19 43.10842
 2018-Dec-20 09:33  m  07 51 25.880011 +01 19 43.29075
 2018-Dec-20 09:34  m  07 51 25.847304 +01 19 43.47307
 2018-Dec-20 09:35  m  07 51 25.814543 +01 19 43.65539
 2018-Dec-20 09:36  m  07 51 25.781730 +01 19 43.83770
 2018-Dec-20 09:37  m  07 51 25.748864 +01 19 44.02001
 2018-Dec-20 09:38  m  07 51 25.715945 +01 19 44.20232
 2018-Dec-20 09:39  m  07 51 25.682974 +01 19 44.38462
 2018-Dec-20 09:40  m  07 51 25.649951 +01 19 44.56692
 2018-Dec-20 09:41  m  07 51 25.616877 +01 19 44.74921
 2018-Dec-20 09:42  m  07 51 25.583751 +01 19 44.93150
 2018-Dec-20 09:43  m  07 51 25.550575 +01 19 45.11378
 2018-Dec-20 09:44  m  07 51 25.517347 +01 19 45.29606
 2018-Dec-20 09:45  m  07 51 25.484069 +01 19 45.47834
 2018-Dec-20 09:46  m  07 51 25.450740 +01 19 45.66061
 2018-Dec-20 09:47  m  07 51 25.417362 +01 19 45.84288
 2018-Dec-20 09:48  m  07 51 25.383933 +01 19 46.02514
 2018-Dec-20 09:49  m  07 51 25.350456 +01 19 46.20740
 2018-Dec-20 09:50  m  07 51 25.316929 +01 19 46.38965
 2018-Dec-20 09:51  m  07 51 25.283353 +01 19 46.57189
 2018-Dec-20 09:52  m  07 51 25.249729 +01 19 46.75414
 2018-Dec-20 09:53  m  07 51 25.216056 +01 19 46.93637
 2018-Dec-20 09:54  m  07 51 25.182336 +01 19 47.11860
 2018-Dec-20 09:55  m  07 51 25.148567 +01 19 47.30083
 2018-Dec-20 09:56  m  07 51 25.114751 +01 19 47.48305
 2018-Dec-20 09:57  m  07 51 25.080888 +01 19 47.66527
 2018-Dec-20 09:58  m  07 51 25.046978 +01 19 47.84748
 2018-Dec-20 09:59  m  07 51 25.013022 +01 19 48.02968
 2018-Dec-20 10:00  m  07 51 24.979019 +01 19 48.21188
 2018-Dec-20 10:01  m  07 51 24.944970 +01 19 48.39408
 2018-Dec-20 10:02  m  07 51 24.910875 +01 19 48.57626
 2018-Dec-20 10:03  m  07 51 24.876735 +01 19 48.75845
 2018-Dec-20 10:04  m  07 51 24.842550 +01 19 48.94062
 2018-Dec-20 10:05  m  07 51 24.808319 +01 19 49.12279
